{
  "links" : {
    "next" : "https://api.nasa.gov/neo/rest/v1/feed?start_date=1997-07-23&end_date=1997-07-23&detailed=true&api_key=t0TVs3DtDT2H8Oy2Zy8m2eVrNsAVKAexjcZXUckd",
    "prev" : "https://api.nasa.gov/neo/rest/v1/feed?start_date=1997-07-21&end_date=1997-07-21&detailed=true&api_key=t0TVs3DtDT2H8Oy2Zy8m2eVrNsAVKAexjcZXUckd",
    "self" : "https://api.nasa.gov/neo/rest/v1/feed?start_date=1997-07-22&end_date=1997-07-22&detailed=true&api_key=t0TVs3DtDT2H8Oy2Zy8m2eVrNsAVKAexjcZXUckd"
  },
  "element_count" : 7,
  "near_earth_objects" : {
    "1997-07-22" : [ {
      "links" : {
        "self" : "https://api.nasa.gov/neo/rest/v1/neo/3631822?api_key=t0TVs3DtDT2H8Oy2Zy8m2eVrNsAVKAexjcZXUckd"
      },
      "neo_reference_id" : "3631822",
      "name" : "(2013 EY27)",
      "nasa_jpl_url" : "http://ssd.jpl.nasa.gov/sbdb.cgi?sstr=3631822",
      "absolute_magnitude_h" : 21.0,
      "estimated_diameter" : {
        "kilometers" : {
          "estimated_diameter_min" : 0.1677084622,
          "estimated_diameter_max" : 0.3750075218
        },
        "meters" : {
          "estimated_diameter_min" : 167.7084621628,
          "estimated_diameter_max" : 375.0075217981
        },
        "miles" : {
          "estimated_diameter_min" : 0.1042091748,
          "estimated_diameter_max" : 0.2330187988
        },
        "feet" : {
          "estimated_diameter_min" : 550.2246310023,
          "estimated_diameter_max" : 1230.3396778159
        }
      },
      "is_potentially_hazardous_asteroid" : false,
      "close_approach_data" : [ {
        "close_approach_date" : "1997-07-22",
        "epoch_date_close_approach" : 869554800000,
        "relative_velocity" : {
          "kilometers_per_second" : "11.1105748391",
          "kilometers_per_hour" : "39998.0694208691",
          "miles_per_hour" : "24853.2448576506"
        },
        "miss_distance" : {
          "astronomical" : "0.2006324565",
          "lunar" : "78.0460205078",
          "kilometers" : "30014188",
          "miles" : "18649952"
        },
        "orbiting_body" : "Earth"
      } ],
      "orbital_data" : {
        "orbit_id" : "15",
        "orbit_determination_date" : "2017-04-06 08:46:33",
        "orbit_uncertainty" : "4",
        "minimum_orbit_intersection" : ".192668",
        "jupiter_tisserand_invariant" : "5.373",
        "epoch_osculation" : "2458000.5",
        "eccentricity" : ".300204787511954",
        "semi_major_axis" : "1.1556894504033",
        "inclination" : "14.47482686058351",
        "ascending_node_longitude" : "337.7081471440158",
        "orbital_period" : "453.7954636812278",
        "perihelion_distance" : ".8087459445151703",
        "perihelion_argument" : "11.70543609690605",
        "aphelion_distance" : "1.50263295629143",
        "perihelion_time" : "2457948.346946506114",
        "mean_anomaly" : "41.3734837838476",
        "mean_motion" : ".7933089438128117",
        "equinox" : "J2000"
      }
    }, {
      "links" : {
        "self" : "https://api.nasa.gov/neo/rest/v1/neo/2471083?api_key=t0TVs3DtDT2H8Oy2Zy8m2eVrNsAVKAexjcZXUckd"
      },
      "neo_reference_id" : "2471083",
      "name" : "471083 (2009 XF2)",
      "nasa_jpl_url" : "http://ssd.jpl.nasa.gov/sbdb.cgi?sstr=2471083",
      "absolute_magnitude_h" : 19.9,
      "estimated_diameter" : {
        "kilometers" : {
          "estimated_diameter_min" : 0.2783267681,
          "estimated_diameter_max" : 0.6223575734
        },
        "meters" : {
          "estimated_diameter_min" : 278.3267680719,
          "estimated_diameter_max" : 622.3575733667
        },
        "miles" : {
          "estimated_diameter_min" : 0.1729441822,
          "estimated_diameter_max" : 0.3867149477
        },
        "feet" : {
          "estimated_diameter_min" : 913.1455937611,
          "estimated_diameter_max" : 2041.8556210042
        }
      },
      "is_potentially_hazardous_asteroid" : false,
      "close_approach_data" : [ {
        "close_approach_date" : "1997-07-22",
        "epoch_date_close_approach" : 869554800000,
        "relative_velocity" : {
          "kilometers_per_second" : "6.9150141974",
          "kilometers_per_hour" : "24894.0511106175",
          "miles_per_hour" : "15468.1952581501"
        },
        "miss_distance" : {
          "astronomical" : "0.4455650831",
          "lunar" : "173.3248138428",
          "kilometers" : "66655588",
          "miles" : "41417860"
        },
        "orbiting_body" : "Earth"
      } ],
      "orbital_data" : {
        "orbit_id" : "37",
        "orbit_determination_date" : "2017-04-06 09:19:12",
        "orbit_uncertainty" : "0",
        "minimum_orbit_intersection" : ".0647323",
        "jupiter_tisserand_invariant" : "4.982",
        "epoch_osculation" : "2458000.5",
        "eccentricity" : ".246945251153436",
        "semi_major_axis" : "1.285529414204267",
        "inclination" : "14.01328687299597",
        "ascending_node_longitude" : "88.50034523056725",
        "orbital_period" : "532.3796595166903",
        "perihelion_distance" : ".9680740301484645",
        "perihelion_argument" : "113.3836032352632",
        "aphelion_distance" : "1.602984798260069",
        "perihelion_time" : "2457983.785336079957",
        "mean_anomaly" : "11.30260877486977",
        "mean_motion" : ".6762091555616878",
        "equinox" : "J2000"
      }
    }, {
      "links" : {
        "self" : "https://api.nasa.gov/neo/rest/v1/neo/2488490?api_key=t0TVs3DtDT2H8Oy2Zy8m2eVrNsAVKAexjcZXUckd"
      },
      "neo_reference_id" : "2488490",
      "name" : "488490 (2000 AF205)",
      "nasa_jpl_url" : "http://ssd.jpl.nasa.gov/sbdb.cgi?sstr=2488490",
      "absolute_magnitude_h" : 21.7,
      "estimated_diameter" : {
        "kilometers" : {
          "estimated_diameter_min" : 0.1214940408,
          "estimated_diameter_max" : 0.2716689341
        },
        "meters" : {
          "estimated_diameter_min" : 121.4940407996,
          "estimated_diameter_max" : 271.6689340891
        },
        "miles" : {
          "estimated_diameter_min" : 0.0754928736,
          "estimated_diameter_max" : 0.1688071972
        },
        "feet" : {
          "estimated_diameter_min" : 398.6025088171,
          "estimated_diameter_max" : 891.3023057169
        }
      },
      "is_potentially_hazardous_asteroid" : true,
      "close_approach_data" : [ {
        "close_approach_date" : "1997-07-22",
        "epoch_date_close_approach" : 869554800000,
        "relative_velocity" : {
          "kilometers_per_second" : "7.2801011336",
          "kilometers_per_hour" : "26208.3640810266",
          "miles_per_hour" : "16284.8582257912"
        },
        "miss_distance" : {
          "astronomical" : "0.2210595657",
          "lunar" : "85.9921722412",
          "kilometers" : "33070040",
          "miles" : "20548770"
        },
        "orbiting_body" : "Earth"
      } ],
      "orbital_data" : {
        "orbit_id" : "34",
        "orbit_determination_date" : "2017-05-17 06:20:06",
        "orbit_uncertainty" : "1",
        "minimum_orbit_intersection" : ".0181806",
        "jupiter_tisserand_invariant" : "5.888",
        "epoch_osculation" : "2458000.5",
        "eccentricity" : ".276832342773757",
        "semi_major_axis" : "1.034084544486993",
        "inclination" : "2.408373826125851",
        "ascending_node_longitude" : "220.066541216687",
        "orbital_period" : "384.0895555202742",
        "perihelion_distance" : ".747816497410525",
        "perihelion_argument" : "127.3508145029687",
        "aphelion_distance" : "1.32035259156346",
        "perihelion_time" : "2457982.778879424392",
        "mean_anomaly" : "16.60967687230428",
        "mean_motion" : ".9372814095721939",
        "equinox" : "J2000"
      }
    } ]
  }
}